{
  "norad_id": 46025,
  "name": "GAOFEN-9 04",
  "history": [
    {
      "epoch": "2026-03-28T21:43:59.803392Z",
      "apogee_km": 467.4099728381034,
      "perigee_km": 451.8306897793027,
      "latitude_deg": 1.1182043563614127e-05,
      "longitude_deg": 5.7718278154928155,
      "height_km": 455.9027080097519,
      "semi_major_axis_km": 6837.757331308702,
      "eccentricity": 0.00113921,
      "inclination_deg": 97.2499,
      "raan_deg": 158.0903,
      "arg_perigee_deg": 28.8693,
      "mean_anomaly_deg": 331.3179,
      "mean_motion_rev_day": 15.35437829
    },
    {
      "epoch": "2026-03-29T03:59:22.335072Z",
      "apogee_km": 467.30696138643,
      "perigee_km": 451.83186423295956,
      "latitude_deg": -2.6966079499739503e-05,
      "longitude_deg": -88.07178472984417,
      "height_km": 455.835251995476,
      "semi_major_axis_km": 6837.7064128096945,
      "eccentricity": 0.0011316,
      "inclination_deg": 97.25,
      "raan_deg": 158.3475,
      "arg_perigee_deg": 27.8935,
      "mean_anomaly_deg": 332.2913,
      "mean_motion_rev_day": 15.3545498
    },
    {
      "epoch": "2026-03-30T05:00:51.585696Z",
      "apogee_km": 467.09076357780305,
      "perigee_km": 451.8306130570163,
      "latitude_deg": 1.0078466530729226e-05,
      "longitude_deg": -103.44559803318646,
      "height_km": 455.5940387540053,
      "semi_major_axis_km": 6837.597688317409,
      "eccentricity": 0.0011159,
      "inclination_deg": 97.2495,
      "raan_deg": 159.3733,
      "arg_perigee_deg": 23.957,
      "mean_anomaly_deg": 336.2191,
      "mean_motion_rev_day": 15.35491603
    },
    {
      "epoch": "2026-03-30T06:34:42.110400Z",
      "apogee_km": 467.09584896528213,
      "perigee_km": 451.81328480596767,
      "latitude_deg": 3.658578880754161e-05,
      "longitude_deg": -126.90595353141329,
      "height_km": 455.5697170990374,
      "semi_major_axis_km": 6837.591566885624,
      "eccentricity": 0.00111754,
      "inclination_deg": 97.2496,
      "raan_deg": 159.4377,
      "arg_perigee_deg": 23.809,
      "mean_anomaly_deg": 336.3669,
      "mean_motion_rev_day": 15.35493665
    },
    {
      "epoch": "2026-03-30T14:23:54.489408Z",
      "apogee_km": 467.0588500144622,
      "perigee_km": 451.76161584306465,
      "latitude_deg": 9.20485959888295e-05,
      "longitude_deg": 115.7921003173344,
      "height_km": 455.4599753788071,
      "semi_major_axis_km": 6837.547232928763,
      "eccentricity": 0.00111862,
      "inclination_deg": 97.2494,
      "raan_deg": 159.7585,
      "arg_perigee_deg": 22.6872,
      "mean_anomaly_deg": 337.4865,
      "mean_motion_rev_day": 15.35508599
    },
    {
      "epoch": "2026-03-30T22:13:06.948768Z",
      "apogee_km": 467.0127476171592,
      "perigee_km": 451.8238023293343,
      "latitude_deg": -3.441110719111153e-05,
      "longitude_deg": -1.5111585373231688,
      "height_km": 455.4785850116494,
      "semi_major_axis_km": 6837.555274973247,
      "eccentricity": 0.0011107,
      "inclination_deg": 97.2497,
      "raan_deg": 160.0783,
      "arg_perigee_deg": 21.8965,
      "mean_anomaly_deg": 338.2751,
      "mean_motion_rev_day": 15.3550589
    },
    {
      "epoch": "2026-03-31T20:06:52.123392Z",
      "apogee_km": 466.9036329441651,
      "perigee_km": 451.72722353444533,
      "latitude_deg": 4.715032551965644e-05,
      "longitude_deg": 30.049572892678473,
      "height_km": 455.2300513878655,
      "semi_major_axis_km": 6837.452428239305,
      "eccentricity": 0.0011098,
      "inclination_deg": 97.2498,
      "raan_deg": 160.9765,
      "arg_perigee_deg": 18.561,
      "mean_anomaly_deg": 341.6037,
      "mean_motion_rev_day": 15.35540535
    },
    {
      "epoch": "2026-04-01T21:08:16.608192Z",
      "apogee_km": 466.747496504594,
      "perigee_km": 451.725786614089,
      "latitude_deg": 7.139228957134249e-05,
      "longitude_deg": 14.696573825952331,
      "height_km": 455.09074023163595,
      "semi_major_axis_km": 6837.373641559341,
      "eccentricity": 0.0010985,
      "inclination_deg": 97.2493,
      "raan_deg": 162.0032,
      "arg_perigee_deg": 14.9864,
      "mean_anomaly_deg": 345.1704,
      "mean_motion_rev_day": 15.35567076
    },
    {
      "epoch": "2026-04-02T20:35:48.882624Z",
      "apogee_km": 466.52560699034075,
      "perigee_km": 451.7461579276169,
      "latitude_deg": 6.99804857093912e-05,
      "longitude_deg": 22.810272487765832,
      "height_km": 455.0047355100518,
      "semi_major_axis_km": 6837.2728824589785,
      "eccentricity": 0.0010808,
      "inclination_deg": 97.2488,
      "raan_deg": 162.9648,
      "arg_perigee_deg": 11.4773,
      "mean_anomaly_deg": 348.6716,
      "mean_motion_rev_day": 15.3560102
    },
    {
      "epoch": "2026-04-02T22:09:38.913984Z",
      "apogee_km": 466.4765521816216,
      "perigee_km": 451.7457010927819,
      "latitude_deg": 1.1520020790956716e-05,
      "longitude_deg": -0.6480110643532653,
      "height_km": 455.0054872412885,
      "semi_major_axis_km": 6837.2481266372015,
      "eccentricity": 0.00107725,
      "inclination_deg": 97.2489,
      "raan_deg": 163.0292,
      "arg_perigee_deg": 11.5428,
      "mean_anomaly_deg": 348.6061,
      "mean_motion_rev_day": 15.3560936
    },
    {
      "epoch": "2026-04-03T20:03:18.641952Z",
      "apogee_km": 466.3758488906042,
      "perigee_km": 451.64862942945365,
      "latitude_deg": -2.9855924550282912e-05,
      "longitude_deg": 30.934891180591066,
      "height_km": 454.8395753012644,
      "semi_major_axis_km": 6837.149239160029,
      "eccentricity": 0.001077,
      "inclination_deg": 97.2486,
      "raan_deg": 163.9268,
      "arg_perigee_deg": 8.4039,
      "mean_anomaly_deg": 351.7383,
      "mean_motion_rev_day": 15.35642675
    },
    {
      "epoch": "2026-04-04T07:00:07.574976Z",
      "apogee_km": 466.25451306278956,
      "perigee_km": 451.5337013858252,
      "latitude_deg": 1.614050637825601e-05,
      "longitude_deg": -133.2692767961654,
      "height_km": 454.69301713208705,
      "semi_major_axis_km": 6837.031107224307,
      "eccentricity": 0.00107655,
      "inclination_deg": 97.2482,
      "raan_deg": 164.3761,
      "arg_perigee_deg": 6.4632,
      "mean_anomaly_deg": 353.6749,
      "mean_motion_rev_day": 15.35682475
    },
    {
      "epoch": "2026-04-05T14:16:42.669120Z",
      "apogee_km": 466.0256709997784,
      "perigee_km": 451.5243071944233,
      "latitude_deg": 2.853881432584941e-05,
      "longitude_deg": 117.58261757332735,
      "height_km": 454.64099869753727,
      "semi_major_axis_km": 6836.911989097101,
      "eccentricity": 0.00106052,
      "inclination_deg": 97.2479,
      "raan_deg": 165.6587,
      "arg_perigee_deg": 1.5379,
      "mean_anomaly_deg": 358.5896,
      "mean_motion_rev_day": 15.35722609
    },
    {
      "epoch": "2026-04-05T20:32:01.540032Z",
      "apogee_km": 465.97102497422384,
      "perigee_km": 451.5957162030236,
      "latitude_deg": 3.326567033719201e-05,
      "longitude_deg": 23.75279405140652,
      "height_km": 454.71056952311665,
      "semi_major_axis_km": 6836.920370588623,
      "eccentricity": 0.0010513,
      "inclination_deg": 97.2478,
      "raan_deg": 165.9144,
      "arg_perigee_deg": 0.6915,
      "mean_anomaly_deg": 359.4342,
      "mean_motion_rev_day": 15.35719785
    },
    {
      "epoch": "2026-04-06T05:54:59.239872Z",
      "apogee_km": 465.8688467837801,
      "perigee_km": 451.5799432054682,
      "latitude_deg": -3.957134549037346e-05,
      "longitude_deg": -116.9874471739186,
      "height_km": 454.6952420063375,
      "semi_major_axis_km": 6836.861394994624,
      "eccentricity": 0.00104499,
      "inclination_deg": 97.2478,
      "raan_deg": 166.2999,
      "arg_perigee_deg": 359.2929,
      "mean_anomaly_deg": 0.8298,
      "mean_motion_rev_day": 15.35739656
    },
    {
      "epoch": "2026-04-07T14:45:19.890720Z",
      "apogee_km": 465.7301869230387,
      "perigee_km": 451.52120627544264,
      "latitude_deg": 1.3611840552763991e-05,
      "longitude_deg": 110.42514455824646,
      "height_km": 454.67252077084987,
      "semi_major_axis_km": 6836.76269659924,
      "eccentricity": 0.00103916,
      "inclination_deg": 97.2473,
      "raan_deg": 167.6472,
      "arg_perigee_deg": 354.2923,
      "mean_anomaly_deg": 5.8201,
      "mean_motion_rev_day": 15.35772912
    },
    {
      "epoch": "2026-04-07T21:00:37.952064Z",
      "apogee_km": 465.66847125408276,
      "perigee_km": 451.5847382283155,
      "latitude_deg": -2.818045774371062e-05,
      "longitude_deg": 16.598809057292282,
      "height_km": 454.75013137959957,
      "semi_major_axis_km": 6836.763604741199,
      "eccentricity": 0.00103,
      "inclination_deg": 97.2471,
      "raan_deg": 167.903,
      "arg_perigee_deg": 353.2345,
      "mean_anomaly_deg": 6.8758,
      "mean_motion_rev_day": 15.35772606
    },
    {
      "epoch": "2026-04-08T15:46:31.031904Z",
      "apogee_km": 465.56983714177295,
      "perigee_km": 451.53056324243335,
      "latitude_deg": 1.603049058475464e-05,
      "longitude_deg": 95.12729440246589,
      "height_km": 454.7503969165176,
      "semi_major_axis_km": 6836.687200192103,
      "eccentricity": 0.00102676,
      "inclination_deg": 97.2471,
      "raan_deg": 168.6733,
      "arg_perigee_deg": 350.1851,
      "mean_anomaly_deg": 9.9191,
      "mean_motion_rev_day": 15.35798351
    },
    {
      "epoch": "2026-04-09T19:55:19.597152Z",
      "apogee_km": 465.43538642436033,
      "perigee_km": 451.5460935078445,
      "latitude_deg": -2.595940794631601e-05,
      "longitude_deg": 32.92279206616234,
      "height_km": 454.87438549253,
      "semi_major_axis_km": 6836.627739966102,
      "eccentricity": 0.0010158,
      "inclination_deg": 97.2473,
      "raan_deg": 169.8271,
      "arg_perigee_deg": 345.865,
      "mean_anomaly_deg": 14.2308,
      "mean_motion_rev_day": 15.35818387
    }
  ]
}